{
    "links": {
        "self": "http://www.neowsapp.com/rest/v1/neo/3748470?api_key=iIulBulltgU6a56xZRHN4H3l9WmuAYTsLGpBGhQ2"
    },
    "id": "3748470",
    "neo_reference_id": "3748470",
    "name": "(2016 FS12)",
    "designation": "2016 FS12",
    "nasa_jpl_url": "http://ssd.jpl.nasa.gov/sbdb.cgi?sstr=3748470",
    "absolute_magnitude_h": 24.1,
    "estimated_diameter": {
        "kilometers": {
            "estimated_diameter_min": 0.040230458,
            "estimated_diameter_max": 0.0899580388
        },
        "meters": {
            "estimated_diameter_min": 40.2304579834,
            "estimated_diameter_max": 89.9580388169
        },
        "miles": {
            "estimated_diameter_min": 0.0249980399,
            "estimated_diameter_max": 0.0558973165
        },
        "feet": {
            "estimated_diameter_min": 131.9896957704,
            "estimated_diameter_max": 295.1379320721
        }
    },
    "is_potentially_hazardous_asteroid": false,
    "close_approach_data": [
        {
            "close_approach_date": "2013-08-24",
            "close_approach_date_full": "2013-Aug-24 17:13",
            "epoch_date_close_approach": 1377364380000,
            "relative_velocity": {
                "kilometers_per_second": "23.4215132659",
                "kilometers_per_hour": "84317.4477571644",
                "miles_per_hour": "52391.5830244447"
            },
            "miss_distance": {
                "astronomical": "0.4164522458",
                "lunar": "161.9999236162",
                "kilometers": "62300368.928396446",
                "miles": "38711654.1688491148"
            },
            "orbiting_body": "Earth"
        },
        {
            "close_approach_date": "2016-04-14",
            "close_approach_date_full": "2016-Apr-14 22:19",
            "epoch_date_close_approach": 1460672340000,
            "relative_velocity": {
                "kilometers_per_second": "13.397509625",
                "kilometers_per_hour": "48231.0346500864",
                "miles_per_hour": "29968.8892802162"
            },
            "miss_distance": {
                "astronomical": "0.0635080888",
                "lunar": "24.7046465432",
                "kilometers": "9500674.812250856",
                "miles": "5903445.5819235728"
            },
            "orbiting_body": "Earth"
        }
    ],
    "orbital_data": {
        "orbit_id": "12",
        "orbit_determination_date": "2017-04-06 08:27:12",
        "first_observation_date": "2016-03-28",
        "last_observation_date": "2016-04-14",
        "data_arc_in_days": 17,
        "observations_used": 80,
        "orbit_uncertainty": "8",
        "minimum_orbit_intersection": ".0626937",
        "jupiter_tisserand_invariant": "3.602",
        "epoch_osculation": "2457480.5",
        "eccentricity": ".551271008969073",
        "semi_major_axis": "2.015646828315992",
        "inclination": "10.57185719176398",
        "ascending_node_longitude": "188.8581482762071",
        "orbital_period": "1045.249783159956",
        "perihelion_distance": ".9044791675449231",
        "perihelion_argument": "66.70875716979725",
        "aphelion_distance": "3.12681448908706",
        "perihelion_time": "2457531.549151385457",
        "mean_anomaly": "342.417892072452",
        "mean_motion": ".3444152831217653",
        "equinox": "J2000",
        "orbit_class": {
            "orbit_class_type": "APO",
            "orbit_class_description": "Near-Earth asteroid orbits which cross the Earth’s orbit similar to that of 1862 Apollo",
            "orbit_class_range": "a (semi-major axis) > 1.0 AU; q (perihelion) < 1.017 AU"
        }
    },
    "is_sentry_object": false
}